[
    {
        "Altitude(m)": 554242.207090178,
        "Argument of Periapsis(deg)": 0.0,
        "Eccentricity": 0.0,
        "Inclination(deg)": 53.0,
        "Latitude(deg)": -0.07930434485626094,
        "Longitude(deg)": 169.97126622959345,
        "Mean Anomaly(deg)": 0.0,
        "RAAN(deg)": 270.0,
        "Satellite Name": "Starlink Shell 1 1188",
        "Satellite Number": 1188,
        "Semi-Major Axis(m)": 6931778.249405717,
        "Time(s)": 0
    },
    {
        "Altitude(m)": 554177.7915419912,
        "Argument of Periapsis(deg)": 0.00034857847951123687,
        "Eccentricity": 0.0,
        "Inclination(deg)": 53.0,
        "Latitude(deg)": 0.42463790451741984,
        "Longitude(deg)": 170.3066439768847,
        "Mean Anomaly(deg)": 0.6268312035567466,
        "RAAN(deg)": 269.9994812299225,
        "Satellite Name": "Starlink Shell 1 1188",
        "Satellite Number": 1188,
        "Semi-Major Axis(m)": 6931778.249405717,
        "Time(s)": 10
    },
    {
        "Altitude(m)": 554116.1800904357,
        "Argument of Periapsis(deg)": 0.0006971569590224737,
        "Eccentricity": 0.0,
        "Inclination(deg)": 53.0,
        "Latitude(deg)": 0.928570426449518,
        "Longitude(deg)": 170.64207746511607,
        "Mean Anomaly(deg)": 1.2536624071134421,
        "RAAN(deg)": 269.9989624598451,
        "Satellite Name": "Starlink Shell 1 1188",
        "Satellite Number": 1188,
        "Semi-Major Axis(m)": 6931778.249405717,
        "Time(s)": 20
    },
    {
        "Altitude(m)": 554057.3789072937,
        "Argument of Periapsis(deg)": 0.0010457354385337105,
        "Eccentricity": 0.0,
        "Inclination(deg)": 53.0,
        "Latitude(deg)": 1.4324703123600524,
        "Longitude(deg)": 170.97762424846445,
        "Mean Anomaly(deg)": 1.8804936106701375,
        "RAAN(deg)": 269.9984436897676,
        "Satellite Name": "Starlink Shell 1 1188",
        "Satellite Number": 1188,
        "Semi-Major Axis(m)": 6931778.249405717,
        "Time(s)": 30
    },
    {
        "Altitude(m)": 554001.3928080667,
        "Argument of Periapsis(deg)": 0.0013943139180449475,
        "Eccentricity": 0.0,
        "Inclination(deg)": 53.0,
        "Latitude(deg)": 1.9363146283508357,
        "Longitude(deg)": 171.31334243756865,
        "Mean Anomaly(deg)": 2.5073248142268336,
        "RAAN(deg)": 269.9979249196901,
        "Satellite Name": "Starlink Shell 1 1188",
        "Satellite Number": 1188,
        "Semi-Major Axis(m)": 6931778.249405717,
        "Time(s)": 40
    },
    {
        "Altitude(m)": 553948.2252523045,
        "Argument of Periapsis(deg)": 0.0017428923975561844,
        "Eccentricity": 0.0,
        "Inclination(deg)": 53.0,
        "Latitude(deg)": 2.4400804034939725,
        "Longitude(deg)": 171.6492897162043,
        "Mean Anomaly(deg)": 3.13415601778358,
        "RAAN(deg)": 269.99740614961263,
        "Satellite Name": "Starlink Shell 1 1188",
        "Satellite Number": 1188,
        "Semi-Major Axis(m)": 6931778.249405717,
        "Time(s)": 50
    },
    {
        "Altitude(m)": 553897.8783446772,
        "Argument of Periapsis(deg)": 0.002091470877067421,
        "Eccentricity": 0.0,
        "Inclination(deg)": 53.0,
        "Latitude(deg)": 2.9437446180837323,
        "Longitude(deg)": 171.9855238708591,
        "Mean Anomaly(deg)": 3.7609872213403266,
        "RAAN(deg)": 269.99688737953517,
        "Satellite Name": "Starlink Shell 1 1188",
        "Satellite Number": 1188,
        "Semi-Major Axis(m)": 6931778.249405717,
        "Time(s)": 60
    },
    {
        "Altitude(m)": 553850.3528366718,
        "Argument of Periapsis(deg)": 0.0024400493565786582,
        "Eccentricity": 0.0,
        "Inclination(deg)": 53.0,
        "Latitude(deg)": 3.4472841918425967,
        "Longitude(deg)": 172.32210332034234,
        "Mean Anomaly(deg)": 4.387818424896971,
        "RAAN(deg)": 269.9963686094577,
        "Satellite Name": "Starlink Shell 1 1188",
        "Satellite Number": 1188,
        "Semi-Major Axis(m)": 6931778.249405717,
        "Time(s)": 70
    },
    {
        "Altitude(m)": 553805.6481289943,
        "Argument of Periapsis(deg)": 0.002788627836089895,
        "Eccentricity": 0.0,
        "Inclination(deg)": 53.0,
        "Latitude(deg)": 3.950675972073303,
        "Longitude(deg)": 172.65908613256263,
        "Mean Anomaly(deg)": 5.014649628453718,
        "RAAN(deg)": 269.99584983938024,
        "Satellite Name": "Starlink Shell 1 1188",
        "Satellite Number": 1188,
        "Semi-Major Axis(m)": 6931778.249405717,
        "Time(s)": 80
    },
    {
        "Altitude(m)": 553763.7622746461,
        "Argument of Periapsis(deg)": 0.0031372063156011316,
        "Eccentricity": 0.0,
        "Inclination(deg)": 53.0,
        "Latitude(deg)": 4.453896721739534,
        "Longitude(deg)": 172.9965305542272,
        "Mean Anomaly(deg)": 5.641480832010414,
        "RAAN(deg)": 269.9953310693027,
        "Satellite Name": "Starlink Shell 1 1188",
        "Satellite Number": 1188,
        "Semi-Major Axis(m)": 6931778.249405717,
        "Time(s)": 90
    },
    {
        "Altitude(m)": 553724.6919826549,
        "Argument of Periapsis(deg)": 0.0034857847951123688,
        "Eccentricity": 0.0,
        "Inclination(deg)": 53.0,
        "Latitude(deg)": 4.95692310746731,
        "Longitude(deg)": 173.33449554059763,
        "Mean Anomaly(deg)": 6.26831203556716,
        "RAAN(deg)": 269.99481229922526,
        "Satellite Name": "Starlink Shell 1 1188",
        "Satellite Number": 1188,
        "Semi-Major Axis(m)": 6931778.249405717,
        "Time(s)": 100
    },
    {
        "Altitude(m)": 553688.4326224913,
        "Argument of Periapsis(deg)": 0.003834363274623606,
        "Eccentricity": 0.0,
        "Inclination(deg)": 53.0,
        "Latitude(deg)": 5.4597316874578175,
        "Longitude(deg)": 173.67303977243253,
        "Mean Anomaly(deg)": 6.8951432391239065,
        "RAAN(deg)": 269.99429352914785,
        "Satellite Name": "Starlink Shell 1 1188",
        "Satellite Number": 1188,
        "Semi-Major Axis(m)": 6931778.249405717,
        "Time(s)": 110
    },
    {
        "Altitude(m)": 553654.9782291546,
        "Argument of Periapsis(deg)": 0.004182941754134842,
        "Eccentricity": 0.0,
        "Inclination(deg)": 53.0,
        "Latitude(deg)": 5.962298899294891,
        "Longitude(deg)": 174.0122221858724,
        "Mean Anomaly(deg)": 7.52197444268055,
        "RAAN(deg)": 269.99377475907033,
        "Satellite Name": "Starlink Shell 1 1188",
        "Satellite Number": 1188,
        "Semi-Major Axis(m)": 6931778.249405717,
        "Time(s)": 120
    },
    {
        "Altitude(m)": 553624.321508907,
        "Argument of Periapsis(deg)": 0.004531520233646079,
        "Eccentricity": 0.0,
        "Inclination(deg)": 53.0,
        "Latitude(deg)": 6.464601047638602,
        "Longitude(deg)": 174.35210250239737,
        "Mean Anomaly(deg)": 8.148805646237298,
        "RAAN(deg)": 269.9932559889928,
        "Satellite Name": "Starlink Shell 1 1188",
        "Satellite Number": 1188,
        "Semi-Major Axis(m)": 6931778.249405717,
        "Time(s)": 130
    },
    {
        "Altitude(m)": 553596.4538456975,
        "Argument of Periapsis(deg)": 0.0048800987131573164,
        "Eccentricity": 0.0,
        "Inclination(deg)": 53.0,
        "Latitude(deg)": 6.966614291795383,
        "Longitude(deg)": 174.69274024598974,
        "Mean Anomaly(deg)": 8.775636849793994,
        "RAAN(deg)": 269.9927372189154,
        "Satellite Name": "Starlink Shell 1 1188",
        "Satellite Number": 1188,
        "Semi-Major Axis(m)": 6931778.249405717,
        "Time(s)": 140
    },
    {
        "Altitude(m)": 553571.3653082117,
        "Argument of Periapsis(deg)": 0.005228677192668553,
        "Eccentricity": 0.0,
        "Inclination(deg)": 53.0,
        "Latitude(deg)": 7.4683146331484025,
        "Longitude(deg)": 175.03419527325326,
        "Mean Anomaly(deg)": 9.40246805335074,
        "RAAN(deg)": 269.99221844883795,
        "Satellite Name": "Starlink Shell 1 1188",
        "Satellite Number": 1188,
        "Semi-Major Axis(m)": 6931778.249405717,
        "Time(s)": 150
    },
    {
        "Altitude(m)": 553549.0446575941,
        "Argument of Periapsis(deg)": 0.00557725567217979,
        "Eccentricity": 0.0,
        "Inclination(deg)": 53.0,
        "Latitude(deg)": 7.969677902438616,
        "Longitude(deg)": 175.3765283036186,
        "Mean Anomaly(deg)": 10.029299256907436,
        "RAAN(deg)": 269.9916996787604,
        "Satellite Name": "Starlink Shell 1 1188",
        "Satellite Number": 1188,
        "Semi-Major Axis(m)": 6931778.249405717,
        "Time(s)": 160
    },
    {
        "Altitude(m)": 553529.4793558199,
        "Argument of Periapsis(deg)": 0.0059258341516910265,
        "Eccentricity": 0.0,
        "Inclination(deg)": 53.0,
        "Latitude(deg)": 8.470679746887688,
        "Longitude(deg)": 175.71979993676615,
        "Mean Anomaly(deg)": 10.65613046046413,
        "RAAN(deg)": 269.99118090868296,
        "Satellite Name": "Starlink Shell 1 1188",
        "Satellite Number": 1188,
        "Semi-Major Axis(m)": 6931778.249405717,
        "Time(s)": 170
    },
    {
        "Altitude(m)": 553512.6555746993,
        "Argument of Periapsis(deg)": 0.006274412631202263,
        "Eccentricity": 0.0,
        "Inclination(deg)": 53.0,
        "Latitude(deg)": 8.971295617145111,
        "Longitude(deg)": 176.0640711830129,
        "Mean Anomaly(deg)": 11.282961664020878,
        "RAAN(deg)": 269.9906621386055,
        "Satellite Name": "Starlink Shell 1 1188",
        "Satellite Number": 1188,
        "Semi-Major Axis(m)": 6931778.249405717,
        "Time(s)": 180
    }
]